TEIKYOSAT-4 (OORURI)    
1 49396U 21102B   26068.67534185  .00002438  00000+0  15740-3 0  9994
2 49396  97.3797 101.9931 0010345 276.5421  83.4630 15.09119208237719
STARLINK-3330           
1 50836U 22001AK  26068.61810225  .00000614  00000+0  56625-4 0  9992
2 50836  53.2181 179.2216 0000885  80.3786 279.7306 15.08839591230159
